IRIDIUM 7               
1 24793U 97020B   25333.81139709  .00000455  00000+0  14961-3 0  9994
2 24793  86.3943 107.5190 0001743  88.7412 271.3984 14.36086920495661
IRIDIUM 5               
1 24795U 97020D   25333.81661844  .00004795  00000+0  37901-3 0  9996
2 24795  86.3897   7.2450 0102259 262.8071  96.1525 14.96314888510212
IRIDIUM 4               
1 24796U 97020E   25333.83023185  .00000460  00000+0  14867-3 0  9990
2 24796  86.3940 104.2765 0001997  89.9879 270.1547 14.36991964496255
IRIDIUM 914             
1 24836U 97030A   25333.09131393  .00000561  00000+0  16838-3 0  9997
2 24836  86.3918 112.7045 0003182  67.2313 292.9223 14.41045243630877
IRIDIUM 16              
1 24841U 97030F   25333.71670328  .00000521  00000+0  16295-3 0  9991
2 24841  86.4024 135.7889 0001004 172.8140 187.3073 14.38865381490801
IRIDIUM 911             
1 24842U 97030G   25333.72232117  .00000675  00000+0  17678-3 0  9999
2 24842  86.4447 134.3745 0012074 265.1216  94.8609 14.47863870499038
IRIDIUM 17              
1 24870U 97034B   25333.80449500  .00000460  00000+0  14552-3 0  9999
2 24870  86.3972 165.1730 0002285 132.4361 227.7030 14.38004217487389
IRIDIUM 920             
1 24871U 97034C   25333.76904451  .00000521  00000+0  15366-3 0  9998
2 24871  86.3971 144.0467 0009532 252.5050 107.5108 14.41706700490434
