<?xml version="1.0" encoding="UTF-8"?>
<ndm xmlns:xsi="http://www.w3.org/2001/XMLSchema-instance" xsi:noNamespaceSchemaLocation="https://sanaregistry.org/r/ndmxml_unqualified/ndmxml-2.0.0-master-2.0.xsd">
<omm id="CCSDS_OMM_VERS" version="2.0">
<header><CREATION_DATE/><ORIGINATOR/></header><body><segment><metadata><OBJECT_NAME>IRIDIUM 7</OBJECT_NAME><OBJECT_ID>1997-020B</OBJECT_ID><CENTER_NAME>EARTH</CENTER_NAME><REF_FRAME>TEME</REF_FRAME><TIME_SYSTEM>UTC</TIME_SYSTEM><MEAN_ELEMENT_THEORY>SGP4</MEAN_ELEMENT_THEORY></metadata><data><meanElements><EPOCH>2025-11-29T19:28:24.708576</EPOCH><MEAN_MOTION>14.36086920</MEAN_MOTION><ECCENTRICITY>.0001743</ECCENTRICITY><INCLINATION>86.3943</INCLINATION><RA_OF_ASC_NODE>107.5190</RA_OF_ASC_NODE><ARG_OF_PERICENTER>88.7412</ARG_OF_PERICENTER><MEAN_ANOMALY>271.3984</MEAN_ANOMALY></meanElements><tleParameters><EPHEMERIS_TYPE>0</EPHEMERIS_TYPE><CLASSIFICATION_TYPE>U</CLASSIFICATION_TYPE><NORAD_CAT_ID>24793</NORAD_CAT_ID><ELEMENT_SET_NO>999</ELEMENT_SET_NO><REV_AT_EPOCH>49566</REV_AT_EPOCH><BSTAR>.14961E-3</BSTAR><MEAN_MOTION_DOT>.455E-5</MEAN_MOTION_DOT><MEAN_MOTION_DDOT>0</MEAN_MOTION_DDOT></tleParameters></data></segment></body></omm>
<omm id="CCSDS_OMM_VERS" version="2.0">
<header><CREATION_DATE/><ORIGINATOR/></header><body><segment><metadata><OBJECT_NAME>IRIDIUM 5</OBJECT_NAME><OBJECT_ID>1997-020D</OBJECT_ID><CENTER_NAME>EARTH</CENTER_NAME><REF_FRAME>TEME</REF_FRAME><TIME_SYSTEM>UTC</TIME_SYSTEM><MEAN_ELEMENT_THEORY>SGP4</MEAN_ELEMENT_THEORY></metadata><data><meanElements><EPOCH>2025-11-29T19:35:55.833216</EPOCH><MEAN_MOTION>14.96314888</MEAN_MOTION><ECCENTRICITY>.0102259</ECCENTRICITY><INCLINATION>86.3897</INCLINATION><RA_OF_ASC_NODE>7.2450</RA_OF_ASC_NODE><ARG_OF_PERICENTER>262.8071</ARG_OF_PERICENTER><MEAN_ANOMALY>96.1525</MEAN_ANOMALY></meanElements><tleParameters><EPHEMERIS_TYPE>0</EPHEMERIS_TYPE><CLASSIFICATION_TYPE>U</CLASSIFICATION_TYPE><NORAD_CAT_ID>24795</NORAD_CAT_ID><ELEMENT_SET_NO>999</ELEMENT_SET_NO><REV_AT_EPOCH>51021</REV_AT_EPOCH><BSTAR>.37901E-3</BSTAR><MEAN_MOTION_DOT>.4795E-4</MEAN_MOTION_DOT><MEAN_MOTION_DDOT>0</MEAN_MOTION_DDOT></tleParameters></data></segment></body></omm>
<omm id="CCSDS_OMM_VERS" version="2.0">
<header><CREATION_DATE/><ORIGINATOR/></header><body><segment><metadata><OBJECT_NAME>IRIDIUM 4</OBJECT_NAME><OBJECT_ID>1997-020E</OBJECT_ID><CENTER_NAME>EARTH</CENTER_NAME><REF_FRAME>TEME</REF_FRAME><TIME_SYSTEM>UTC</TIME_SYSTEM><MEAN_ELEMENT_THEORY>SGP4</MEAN_ELEMENT_THEORY></metadata><data><meanElements><EPOCH>2025-11-29T19:55:32.031840</EPOCH><MEAN_MOTION>14.36991964</MEAN_MOTION><ECCENTRICITY>.0001997</ECCENTRICITY><INCLINATION>86.3940</INCLINATION><RA_OF_ASC_NODE>104.2765</RA_OF_ASC_NODE><ARG_OF_PERICENTER>89.9879</ARG_OF_PERICENTER><MEAN_ANOMALY>270.1547</MEAN_ANOMALY></meanElements><tleParameters><EPHEMERIS_TYPE>0</EPHEMERIS_TYPE><CLASSIFICATION_TYPE>U</CLASSIFICATION_TYPE><NORAD_CAT_ID>24796</NORAD_CAT_ID><ELEMENT_SET_NO>999</ELEMENT_SET_NO><REV_AT_EPOCH>49625</REV_AT_EPOCH><BSTAR>.14867E-3</BSTAR><MEAN_MOTION_DOT>.46E-5</MEAN_MOTION_DOT><MEAN_MOTION_DDOT>0</MEAN_MOTION_DDOT></tleParameters></data></segment></body></omm>
<omm id="CCSDS_OMM_VERS" version="2.0">
<header><CREATION_DATE/><ORIGINATOR/></header><body><segment><metadata><OBJECT_NAME>IRIDIUM 914</OBJECT_NAME><OBJECT_ID>1997-030A</OBJECT_ID><CENTER_NAME>EARTH</CENTER_NAME><REF_FRAME>TEME</REF_FRAME><TIME_SYSTEM>UTC</TIME_SYSTEM><MEAN_ELEMENT_THEORY>SGP4</MEAN_ELEMENT_THEORY></metadata><data><meanElements><EPOCH>2025-11-29T02:11:29.523552</EPOCH><MEAN_MOTION>14.41045243</MEAN_MOTION><ECCENTRICITY>.00031826</ECCENTRICITY><INCLINATION>86.3918</INCLINATION><RA_OF_ASC_NODE>112.7045</RA_OF_ASC_NODE><ARG_OF_PERICENTER>67.2313</ARG_OF_PERICENTER><MEAN_ANOMALY>292.9223</MEAN_ANOMALY></meanElements><tleParameters><EPHEMERIS_TYPE>0</EPHEMERIS_TYPE><CLASSIFICATION_TYPE>U</CLASSIFICATION_TYPE><NORAD_CAT_ID>24836</NORAD_CAT_ID><ELEMENT_SET_NO>999</ELEMENT_SET_NO><REV_AT_EPOCH>63087</REV_AT_EPOCH><BSTAR>.16837988E-3</BSTAR><MEAN_MOTION_DOT>.561E-5</MEAN_MOTION_DOT><MEAN_MOTION_DDOT>0</MEAN_MOTION_DDOT></tleParameters></data></segment></body></omm>
<omm id="CCSDS_OMM_VERS" version="2.0">
<header><CREATION_DATE/><ORIGINATOR/></header><body><segment><metadata><OBJECT_NAME>IRIDIUM 16</OBJECT_NAME><OBJECT_ID>1997-030F</OBJECT_ID><CENTER_NAME>EARTH</CENTER_NAME><REF_FRAME>TEME</REF_FRAME><TIME_SYSTEM>UTC</TIME_SYSTEM><MEAN_ELEMENT_THEORY>SGP4</MEAN_ELEMENT_THEORY></metadata><data><meanElements><EPOCH>2025-11-29T17:12:03.163392</EPOCH><MEAN_MOTION>14.38865381</MEAN_MOTION><ECCENTRICITY>.0001004</ECCENTRICITY><INCLINATION>86.4024</INCLINATION><RA_OF_ASC_NODE>135.7889</RA_OF_ASC_NODE><ARG_OF_PERICENTER>172.8140</ARG_OF_PERICENTER><MEAN_ANOMALY>187.3073</MEAN_ANOMALY></meanElements><tleParameters><EPHEMERIS_TYPE>0</EPHEMERIS_TYPE><CLASSIFICATION_TYPE>U</CLASSIFICATION_TYPE><NORAD_CAT_ID>24841</NORAD_CAT_ID><ELEMENT_SET_NO>999</ELEMENT_SET_NO><REV_AT_EPOCH>49080</REV_AT_EPOCH><BSTAR>.16295E-3</BSTAR><MEAN_MOTION_DOT>.521E-5</MEAN_MOTION_DOT><MEAN_MOTION_DDOT>0</MEAN_MOTION_DDOT></tleParameters></data></segment></body></omm>
<omm id="CCSDS_OMM_VERS" version="2.0">
<header><CREATION_DATE/><ORIGINATOR/></header><body><segment><metadata><OBJECT_NAME>IRIDIUM 911</OBJECT_NAME><OBJECT_ID>1997-030G</OBJECT_ID><CENTER_NAME>EARTH</CENTER_NAME><REF_FRAME>TEME</REF_FRAME><TIME_SYSTEM>UTC</TIME_SYSTEM><MEAN_ELEMENT_THEORY>SGP4</MEAN_ELEMENT_THEORY></metadata><data><meanElements><EPOCH>2025-11-29T17:20:08.549088</EPOCH><MEAN_MOTION>14.47863870</MEAN_MOTION><ECCENTRICITY>.0012074</ECCENTRICITY><INCLINATION>86.4447</INCLINATION><RA_OF_ASC_NODE>134.3745</RA_OF_ASC_NODE><ARG_OF_PERICENTER>265.1216</ARG_OF_PERICENTER><MEAN_ANOMALY>94.8609</MEAN_ANOMALY></meanElements><tleParameters><EPHEMERIS_TYPE>0</EPHEMERIS_TYPE><CLASSIFICATION_TYPE>U</CLASSIFICATION_TYPE><NORAD_CAT_ID>24842</NORAD_CAT_ID><ELEMENT_SET_NO>999</ELEMENT_SET_NO><REV_AT_EPOCH>49903</REV_AT_EPOCH><BSTAR>.17678E-3</BSTAR><MEAN_MOTION_DOT>.675E-5</MEAN_MOTION_DOT><MEAN_MOTION_DDOT>0</MEAN_MOTION_DDOT></tleParameters></data></segment></body></omm>
<omm id="CCSDS_OMM_VERS" version="2.0">
<header><CREATION_DATE/><ORIGINATOR/></header><body><segment><metadata><OBJECT_NAME>IRIDIUM 17</OBJECT_NAME><OBJECT_ID>1997-034B</OBJECT_ID><CENTER_NAME>EARTH</CENTER_NAME><REF_FRAME>TEME</REF_FRAME><TIME_SYSTEM>UTC</TIME_SYSTEM><MEAN_ELEMENT_THEORY>SGP4</MEAN_ELEMENT_THEORY></metadata><data><meanElements><EPOCH>2025-11-29T19:18:28.368000</EPOCH><MEAN_MOTION>14.38004217</MEAN_MOTION><ECCENTRICITY>.0002285</ECCENTRICITY><INCLINATION>86.3972</INCLINATION><RA_OF_ASC_NODE>165.1730</RA_OF_ASC_NODE><ARG_OF_PERICENTER>132.4361</ARG_OF_PERICENTER><MEAN_ANOMALY>227.7030</MEAN_ANOMALY></meanElements><tleParameters><EPHEMERIS_TYPE>0</EPHEMERIS_TYPE><CLASSIFICATION_TYPE>U</CLASSIFICATION_TYPE><NORAD_CAT_ID>24870</NORAD_CAT_ID><ELEMENT_SET_NO>999</ELEMENT_SET_NO><REV_AT_EPOCH>48738</REV_AT_EPOCH><BSTAR>.14552E-3</BSTAR><MEAN_MOTION_DOT>.46E-5</MEAN_MOTION_DOT><MEAN_MOTION_DDOT>0</MEAN_MOTION_DDOT></tleParameters></data></segment></body></omm>
<omm id="CCSDS_OMM_VERS" version="2.0">
<header><CREATION_DATE/><ORIGINATOR/></header><body><segment><metadata><OBJECT_NAME>IRIDIUM 920</OBJECT_NAME><OBJECT_ID>1997-034C</OBJECT_ID><CENTER_NAME>EARTH</CENTER_NAME><REF_FRAME>TEME</REF_FRAME><TIME_SYSTEM>UTC</TIME_SYSTEM><MEAN_ELEMENT_THEORY>SGP4</MEAN_ELEMENT_THEORY></metadata><data><meanElements><EPOCH>2025-11-29T18:27:25.445664</EPOCH><MEAN_MOTION>14.41706700</MEAN_MOTION><ECCENTRICITY>.0009532</ECCENTRICITY><INCLINATION>86.3971</INCLINATION><RA_OF_ASC_NODE>144.0467</RA_OF_ASC_NODE><ARG_OF_PERICENTER>252.5050</ARG_OF_PERICENTER><MEAN_ANOMALY>107.5108</MEAN_ANOMALY></meanElements><tleParameters><EPHEMERIS_TYPE>0</EPHEMERIS_TYPE><CLASSIFICATION_TYPE>U</CLASSIFICATION_TYPE><NORAD_CAT_ID>24871</NORAD_CAT_ID><ELEMENT_SET_NO>999</ELEMENT_SET_NO><REV_AT_EPOCH>49043</REV_AT_EPOCH><BSTAR>.15366E-3</BSTAR><MEAN_MOTION_DOT>.521E-5</MEAN_MOTION_DOT><MEAN_MOTION_DDOT>0</MEAN_MOTION_DDOT></tleParameters></data></segment></body></omm>

</ndm>
